[{"OBJECT_NAME":"STARLINK-3204","OBJECT_ID":"2021-115AM","EPOCH":"2026-03-09T11:37:56.995680","MEAN_MOTION":15.08833857,"ECCENTRICITY":0.00013375,"INCLINATION":53.2168,"RA_OF_ASC_NODE":140.0392,"ARG_OF_PERICENTER":100.259,"MEAN_ANOMALY":259.8553,"EPHEMERIS_TYPE":0,"CLASSIFICATION_TYPE":"U","NORAD_CAT_ID":49759,"ELEMENT_SET_NO":999,"REV_AT_EPOCH":23564,"BSTAR":8.113884e-6,"MEAN_MOTION_DOT":-1.59e-6,"MEAN_MOTION_DDOT":0},{"OBJECT_NAME":"CZ-6A DEB","OBJECT_ID":"2022-151TF","EPOCH":"2026-03-09T20:10:56.828064","MEAN_MOTION":14.824189,"ECCENTRICITY":0.01303169,"INCLINATION":98.7184,"RA_OF_ASC_NODE":180.8188,"ARG_OF_PERICENTER":97.1353,"MEAN_ANOMALY":264.4696,"EPHEMERIS_TYPE":0,"CLASSIFICATION_TYPE":"U","NORAD_CAT_ID":54966,"ELEMENT_SET_NO":999,"REV_AT_EPOCH":17789,"BSTAR":0.0010552869,"MEAN_MOTION_DOT":9.753e-5,"MEAN_MOTION_DDOT":0}]
